STARLINK-35783          
1 66286U 25247X   25325.00002315  .00088223  00000+0  15798-2 0  9990
2 66286  53.1590 340.0221 0001289  89.2660 147.8321 15.49247644  4079
STARLINK-34884          
1 66287U 25247Y   25325.00002315  .00085616  00000+0  15338-2 0  9994
2 66287  53.1590 340.0185 0001362  91.3533 147.6611 15.49249238  4390
STARLINK-34896          
1 66288U 25247Z   25325.00002315  .00088186  00000+0  15791-2 0  9993
2 66288  53.1589 340.0146 0001351  81.6318 159.2970 15.49248978  4394
STARLINK-35802          
1 66289U 25247AA  25325.00002315  .00085422  00000+0  15305-2 0  9995
2 66289  53.1590 340.0103 0001197  95.0885 147.7633 15.49248200  4077
STARLINK-35799          
1 66290U 25247AB  25325.00002315  .00085795  00000+0  15370-2 0  9992
2 66290  53.1590 340.0065 0001217  94.5227 150.2398 15.49249662  4444
STARLINK-35800          
1 66291U 25247AC  25325.00002315  .00087149  00000+0  15608-2 0  9992
2 66291  53.1589 339.9978 0001228  90.9266 157.6693 15.49249221  4448
STARLINK-35798          
1 66292U 25247AD  25325.00002315  .00089107  00000+0  15954-2 0  9993
2 66292  53.1590 340.0021 0001340  87.8259 158.8567 15.49247282  4128
LVM3 R/B                
1 66310U 25249A   25324.53224954  .00035555 -70320-6  99344-3 0  9992
2 66310  21.3430 150.2691 6674791 196.7862 120.6792  3.13347494   582
CMS-03 (GSAT-7R)        
1 66311U 25249B   25324.85883133 -.00000236  00000+0  00000+0 0  9994
2 66311   0.1964 271.5979 0004674 197.1696 354.0419  1.00273733   269
YAOGAN-46               
1 66313U 25250A   25323.71050301 -.00000009  00000+0  00000+0 0  9993
2 66313  20.0323 106.9378 0049242 131.7872 228.6447  5.35115933   968
SENTINEL-1D             
1 66315U 25251A   25324.23923171  .00000216  00000+0  55161-4 0  9990
2 66315  98.1938 329.5540 0000484 230.9972 129.1185 14.59587352  2252
QPS-SAR-14 (YACHIHOKO-I)
1 66316U 25252A   25324.85982461  .00003822  00000+0  33849-3 0  9991
2 66316  42.0035 195.2951 0008302 357.1296   2.9479 14.97381090  2258
